{
  "links" : {
    "next" : "https://api.nasa.gov/neo/rest/v1/feed?start_date=2011-09-23&end_date=2011-09-23&detailed=true&api_key=t0TVs3DtDT2H8Oy2Zy8m2eVrNsAVKAexjcZXUckd",
    "prev" : "https://api.nasa.gov/neo/rest/v1/feed?start_date=2011-09-21&end_date=2011-09-21&detailed=true&api_key=t0TVs3DtDT2H8Oy2Zy8m2eVrNsAVKAexjcZXUckd",
    "self" : "https://api.nasa.gov/neo/rest/v1/feed?start_date=2011-09-22&end_date=2011-09-22&detailed=true&api_key=t0TVs3DtDT2H8Oy2Zy8m2eVrNsAVKAexjcZXUckd"
  },
  "element_count" : 7,
  "near_earth_objects" : {
    "2011-09-22" : [ {
      "links" : {
        "self" : "https://api.nasa.gov/neo/rest/v1/neo/3577448?api_key=t0TVs3DtDT2H8Oy2Zy8m2eVrNsAVKAexjcZXUckd"
      },
      "neo_reference_id" : "3577448",
      "name" : "(2011 RX)",
      "nasa_jpl_url" : "http://ssd.jpl.nasa.gov/sbdb.cgi?sstr=3577448",
      "absolute_magnitude_h" : 23.3,
      "estimated_diameter" : {
        "kilometers" : {
          "estimated_diameter_min" : 0.058150704,
          "estimated_diameter_max" : 0.130028927
        },
        "meters" : {
          "estimated_diameter_min" : 58.1507039646,
          "estimated_diameter_max" : 130.0289270043
        },
        "miles" : {
          "estimated_diameter_min" : 0.0361331611,
          "estimated_diameter_max" : 0.0807962044
        },
        "feet" : {
          "estimated_diameter_min" : 190.7831555951,
          "estimated_diameter_max" : 426.6041048727
        }
      },
      "is_potentially_hazardous_asteroid" : false,
      "close_approach_data" : [ {
        "close_approach_date" : "2011-09-22",
        "epoch_date_close_approach" : 1316674800000,
        "relative_velocity" : {
          "kilometers_per_second" : "0.9765405792",
          "kilometers_per_hour" : "3515.5460851234",
          "miles_per_hour" : "2184.4236216146"
        },
        "miss_distance" : {
          "astronomical" : "0.2356230841",
          "lunar" : "91.6573791504",
          "kilometers" : "35248712",
          "miles" : "21902534"
        },
        "orbiting_body" : "Earth"
      } ],
      "orbital_data" : {
        "orbit_id" : "11",
        "orbit_determination_date" : "2017-04-06 08:52:53",
        "orbit_uncertainty" : "6",
        "minimum_orbit_intersection" : ".232971",
        "jupiter_tisserand_invariant" : "4.042",
        "epoch_osculation" : "2458000.5",
        "eccentricity" : ".3054296256898842",
        "semi_major_axis" : "1.77533374166315",
        "inclination" : "2.261229784459431",
        "ascending_node_longitude" : "270.9842627573077",
        "orbital_period" : "864.0093410349829",
        "perihelion_distance" : "1.233094221472353",
        "perihelion_argument" : "87.58394699273008",
        "aphelion_distance" : "2.317573261853948",
        "perihelion_time" : "2458416.326842072750",
        "mean_anomaly" : "186.7406889758049",
        "mean_motion" : ".4166621619724178",
        "equinox" : "J2000"
      }
    }, {
      "links" : {
        "self" : "https://api.nasa.gov/neo/rest/v1/neo/3577160?api_key=t0TVs3DtDT2H8Oy2Zy8m2eVrNsAVKAexjcZXUckd"
      },
      "neo_reference_id" : "3577160",
      "name" : "(2011 RF)",
      "nasa_jpl_url" : "http://ssd.jpl.nasa.gov/sbdb.cgi?sstr=3577160",
      "absolute_magnitude_h" : 20.5,
      "estimated_diameter" : {
        "kilometers" : {
          "estimated_diameter_min" : 0.2111324448,
          "estimated_diameter_max" : 0.4721064988
        },
        "meters" : {
          "estimated_diameter_min" : 211.1324447897,
          "estimated_diameter_max" : 472.1064988055
        },
        "miles" : {
          "estimated_diameter_min" : 0.1311915784,
          "estimated_diameter_max" : 0.2933532873
        },
        "feet" : {
          "estimated_diameter_min" : 692.6917701639,
          "estimated_diameter_max" : 1548.9058855411
        }
      },
      "is_potentially_hazardous_asteroid" : false,
      "close_approach_data" : [ {
        "close_approach_date" : "2011-09-22",
        "epoch_date_close_approach" : 1316674800000,
        "relative_velocity" : {
          "kilometers_per_second" : "3.2730240662",
          "kilometers_per_hour" : "11782.8866382064",
          "miles_per_hour" : "7321.4275336122"
        },
        "miss_distance" : {
          "astronomical" : "0.3028722447",
          "lunar" : "117.8172988892",
          "kilometers" : "45309044",
          "miles" : "28153734"
        },
        "orbiting_body" : "Earth"
      } ],
      "orbital_data" : {
        "orbit_id" : "22",
        "orbit_determination_date" : "2017-04-06 08:52:54",
        "orbit_uncertainty" : "1",
        "minimum_orbit_intersection" : ".292801",
        "jupiter_tisserand_invariant" : "4.044",
        "epoch_osculation" : "2458000.5",
        "eccentricity" : ".2958640266677295",
        "semi_major_axis" : "1.76629610671657",
        "inclination" : "9.522213543417722",
        "ascending_node_longitude" : "233.5416315864844",
        "orbital_period" : "857.4201674321914",
        "perihelion_distance" : "1.243712628295872",
        "perihelion_argument" : "107.5887129742162",
        "aphelion_distance" : "2.288879585137269",
        "perihelion_time" : "2458373.645307628217",
        "mean_anomaly" : "203.3296581436175",
        "mean_motion" : ".4198641619057443",
        "equinox" : "J2000"
      }
    }, {
      "links" : {
        "self" : "https://api.nasa.gov/neo/rest/v1/neo/3599541?api_key=t0TVs3DtDT2H8Oy2Zy8m2eVrNsAVKAexjcZXUckd"
      },
      "neo_reference_id" : "3599541",
      "name" : "(2012 DO8)",
      "nasa_jpl_url" : "http://ssd.jpl.nasa.gov/sbdb.cgi?sstr=3599541",
      "absolute_magnitude_h" : 22.4,
      "estimated_diameter" : {
        "kilometers" : {
          "estimated_diameter_min" : 0.0880146521,
          "estimated_diameter_max" : 0.1968067451
        },
        "meters" : {
          "estimated_diameter_min" : 88.0146520901,
          "estimated_diameter_max" : 196.8067450894
        },
        "miles" : {
          "estimated_diameter_min" : 0.0546897524,
          "estimated_diameter_max" : 0.122290004
        },
        "feet" : {
          "estimated_diameter_min" : 288.7619911632,
          "estimated_diameter_max" : 645.6914415591
        }
      },
      "is_potentially_hazardous_asteroid" : false,
      "close_approach_data" : [ {
        "close_approach_date" : "2011-09-22",
        "epoch_date_close_approach" : 1316674800000,
        "relative_velocity" : {
          "kilometers_per_second" : "10.7919470022",
          "kilometers_per_hour" : "38851.0092077702",
          "miles_per_hour" : "24140.5062491281"
        },
        "miss_distance" : {
          "astronomical" : "0.2872189318",
          "lunar" : "111.7281646729",
          "kilometers" : "42967340",
          "miles" : "26698668"
        },
        "orbiting_body" : "Earth"
      } ],
      "orbital_data" : {
        "orbit_id" : "21",
        "orbit_determination_date" : "2017-04-06 08:50:53",
        "orbit_uncertainty" : "4",
        "minimum_orbit_intersection" : ".125694",
        "jupiter_tisserand_invariant" : "6.316",
        "epoch_osculation" : "2458000.5",
        "eccentricity" : ".2458274577224918",
        "semi_major_axis" : ".9463352470386508",
        "inclination" : "8.77528163921647",
        "ascending_node_longitude" : "347.4327176234721",
        "orbital_period" : "336.2528321458882",
        "perihelion_distance" : ".713700059105953",
        "perihelion_argument" : "356.9643948238835",
        "aphelion_distance" : "1.178970434971349",
        "perihelion_time" : "2457834.385809088967",
        "mean_anomaly" : "177.8456655556921",
        "mean_motion" : "1.070622952682845",
        "equinox" : "J2000"
      }
    } ]
  }
}